QIANFAN-33              
1 61566U 24185Q   25331.28470281  .00000473  00000+0  33238-3 0  9995
2 61566  88.9799  80.5277 0007395  30.9116 329.2495 13.96534094 67000
QIANFAN-34              
1 61567U 24185R   25331.31347873  .00000588  00000+0  37473-3 0  9992
2 61567  88.9776  80.1088 0006557  38.3725 321.7921 14.02285556 67194
QIANFAN-35              
1 61568U 24185S   25331.28083999  .00000935  00000+0  37184-3 0  9990
2 61568  88.9802  78.6909 0005753 355.4996   4.6146 14.27926340 67971
QIANFAN-36              
1 61569U 24185T   25331.31473019  .00000182  00000+0  24408-3 0  9990
2 61569  88.9781  82.6485 0007771  91.3298 268.8746 13.55580559 65836
QIANFAN-37              
1 62238U 24232B   25331.21674393  .00000164  00000+0  23503-3 0  9999
2 62238  89.0034  42.8946 0002562 116.1264 244.0152 13.50987302 97075
QIANFAN-38              
1 62239U 24232C   25331.24143086  .00000169  00000+0  24380-3 0  9992
2 62239  89.0041  42.8069 0013292 234.0061 125.9858 13.50976579 97138
QIANFAN-39              
1 62240U 24232D   25331.26007069  .00000639  00000+0  26480-3 0  9991
2 62240  89.0031  39.0782 0018228 126.1847 234.1035 14.25369506 99182
QIANFAN-40              
1 62241U 24232E   25331.27434324  .00000168  00000+0  24235-3 0  9994
2 62241  89.0068  42.3838 0012124 242.1723 117.8200 13.50976221 97503
